NORAD_CAT_ID,OBJECT_NAME,OBJECT_TYPE,EPOCH,MEAN_MOTION,ECCENTRICITY,INCLINATION,RA_OF_ASC_NODE,ARG_OF_PERICENTER,MEAN_ANOMALY,BSTAR,MEAN_MOTION_DOT,MEAN_MOTION_DDOT,TLE_LINE0,TLE_LINE1,TLE_LINE2,SEMIMAJOR_AXIS,PERIOD,APOGEE,PERIGEE,DECAYED
51142.0,STARLINK-3369,PAYLOAD,2023-11-13 11:48:47,15.08841221,0.0001379,53.216,132.4055,89.635,270.4801,0.00012149,1.646e-05,0.0,0 STARLINK-3369,1 51142U 22005AQ  23317.49221730  .00001646  00000-0  12149-3 0  9993,2 51142  53.2160 132.4055 0001379  89.6350 270.4801 15.08841221102123,6917.877,95.437,540.696,538.788,0.0
51142.0,STARLINK-3369,PAYLOAD,2023-11-13 18:10:20,15.08843208,0.0001361,53.216,131.2169,86.1814,273.9333,0.00011281,1.508e-05,0.0,0 STARLINK-3369,1 51142U 22005AQ  23317.75717594  .00001508  00000-0  11281-3 0  9993,2 51142  53.2160 131.2169 0001361  86.1814 273.9333 15.08843208101016,6917.871,95.437,540.677,538.794,0.0
51142.0,STARLINK-3369,PAYLOAD,2023-11-14 11:39:34,15.08839547,0.0001403,53.2157,127.9464,84.5199,275.5953,1.3969e-06,-2.66e-06,0.0,0 STARLINK-3369,1 51142U 22005AQ  23318.48581937 -.00000266  00000-0  13969-5 0  9992,2 51142  53.2157 127.9464 0001403  84.5199 275.5953 15.08839547101126,6917.882,95.438,540.717,538.776,0.0
51142.0,STARLINK-3369,PAYLOAD,2023-11-14 18:01:07,15.08840962,0.0001391,53.2163,126.7559,90.3818,269.7333,2.433e-05,9.9e-07,0.0,0 STARLINK-3369,1 51142U 22005AQ  23318.75077737  .00000099  00000-0  24330-4 0  9996,2 51142  53.2163 126.7559 0001391  90.3818 269.7333 15.08840962102316,6917.877,95.437,540.705,538.78,0.0
51142.0,STARLINK-3369,PAYLOAD,2023-11-16 11:21:08,15.08836528,0.0001484,53.2158,119.0239,93.8085,266.3077,6.163e-05,6.93e-06,0.0,0 STARLINK-3369,1 51142U 22005AQ  23320.47302036  .00000693  00000-0  61630-4 0  9995,2 51142  53.2158 119.0239 0001484  93.8085 266.3077 15.08836528102576,6917.891,95.438,540.783,538.729,0.0
51142.0,STARLINK-3369,PAYLOAD,2023-11-16 12:56:32,15.08837478,0.0001399,53.217,118.7271,93.672,266.4432,7.4762e-05,9.02e-06,0.0,0 STARLINK-3369,1 51142U 22005AQ  23320.53925939  .00000902  00000-0  74762-4 0  9998,2 51142  53.2170 118.7271 0001399  93.6720 266.4432 15.08837478101436,6917.888,95.438,540.721,538.785,0.0
51142.0,STARLINK-3369,PAYLOAD,2023-11-16 20:53:27,15.08842222,0.0001278,53.2168,117.2403,89.5694,270.5444,9.8745e-05,1.284e-05,0.0,0 STARLINK-3369,1 51142U 22005AQ  23320.87045612  .00001284  00000-0  98745-4 0  9997,2 51142  53.2168 117.2403 0001278  89.5694 270.5444 15.08842222101481,6917.874,95.437,540.623,538.854,0.0
51142.0,STARLINK-3369,PAYLOAD,2023-11-17 14:22:42,15.08837261,0.0001266,53.2168,113.9689,91.9735,268.1402,3.5111e-05,2.71e-06,0.0,0 STARLINK-3369,1 51142U 22005AQ  23321.59910457  .00000271  00000-0  35111-4 0  9998,2 51142  53.2168 113.9689 0001266  91.9735 268.1402 15.08837261101596,6917.889,95.438,540.63,538.878,0.0
51142.0,STARLINK-3369,PAYLOAD,2023-11-17 19:08:52,15.08865676,0.0001093,53.217,113.0773,92.9892,267.1225,-0.00026788,-4.552e-05,0.0,0 STARLINK-3369,1 51142U 22005AQ  23321.79782714 -.00004552  00000-0 -26788-3 0  9990,2 51142  53.2170 113.0773 0001093  92.9892 267.1225 15.08865676102771,6917.802,95.436,540.423,538.911,0.0
51142.0,STARLINK-3369,PAYLOAD,2023-11-17 22:19:38,15.08839878,0.0001278,53.2169,112.4825,90.6978,269.4161,6.3728e-05,7.26e-06,0.0,0 STARLINK-3369,1 51142U 22005AQ  23321.93030271  .00000726  00000-0  63728-4 0  9993,2 51142  53.2169 112.4825 0001278  90.6978 269.4161 15.08839878101649,6917.881,95.438,540.63,538.862,0.0
51142.0,STARLINK-3369,PAYLOAD,2023-11-18 01:30:24,15.08837624,0.0001259,53.2168,111.8875,89.8348,270.2788,4.0402e-05,3.55e-06,0.0,0 STARLINK-3369,1 51142U 22005AQ  23322.06278482  .00000355  00000-0  40402-4 0  9998,2 51142  53.2168 111.8875 0001259  89.8348 270.2788 15.08837624102818,6917.888,95.438,540.624,538.882,0.0
51142.0,STARLINK-3369,PAYLOAD,2023-11-18 12:38:06,15.08837745,0.0001272,53.217,109.8059,90.4117,269.7021,4.5404e-05,4.35e-06,0.0,0 STARLINK-3369,1 51142U 22005AQ  23322.52646661  .00000435  00000-0  45404-4 0  9993,2 51142  53.2170 109.8059 0001272  90.4117 269.7021 15.08837745101736,6917.887,95.438,540.632,538.872,0.0
51142.0,STARLINK-3369,PAYLOAD,2023-11-18 22:10:25,15.08842147,0.0001272,53.217,108.0219,89.344,270.7698,6.1538e-05,6.92e-06,0.0,0 STARLINK-3369,1 51142U 22005AQ  23322.92390248  .00000692  00000-0  61538-4 0  9995,2 51142  53.2170 108.0219 0001272  89.3440 270.7698 15.08842147101791,6917.874,95.437,540.619,538.859,0.0
51142.0,STARLINK-3369,PAYLOAD,2023-11-19 10:53:30,15.08835867,0.0001259,53.2171,105.6427,89.6459,270.4677,0.00011246,1.502e-05,0.0,0 STARLINK-3369,1 51142U 22005AQ  23323.45382760  .00001502  00000-0  11246-3 0  9995,2 51142  53.2171 105.6427 0001259  89.6459 270.4677 15.08835867103027,6917.893,95.438,540.629,538.887,0.0
51142.0,STARLINK-3369,PAYLOAD,2023-11-19 14:04:16,15.08838768,0.0001265,53.2171,105.0481,89.4382,270.6755,0.00011672,1.57e-05,0.0,0 STARLINK-3369,1 51142U 22005AQ  23323.58630588  .00001570  00000-0  11672-3 0  9991,2 51142  53.2171 105.0481 0001265  89.4382 270.6755 15.08838768101896,6917.884,95.438,540.624,538.874,0.0
51142.0,STARLINK-3369,PAYLOAD,2023-11-19 20:25:49,15.08844399,0.0001272,53.2171,103.8586,88.6154,271.4984,0.00013094,1.797e-05,0.0,0 STARLINK-3369,1 51142U 22005AQ  23323.85126181  .00001797  00000-0  13094-3 0  9991,2 51142  53.2171 103.8586 0001272  88.6154 271.4984 15.08844399101939,6917.867,95.437,540.612,538.852,0.0
51142.0,STARLINK-3369,PAYLOAD,2023-11-20 13:55:03,15.0884408,0.0001272,53.2172,100.5874,88.8272,271.2865,0.00014301,1.989e-05,0.0,0 STARLINK-3369,1 51142U 22005AQ  23324.57990301  .00001989  00000-0  14301-3 0  9999,2 51142  53.2172 100.5874 0001272  88.8272 271.2865 15.08844080102043,6917.868,95.437,540.613,538.853,0.0
51142.0,STARLINK-3369,PAYLOAD,2023-11-20 18:41:12,15.08851121,0.0001269,53.2172,99.6954,89.028,271.0857,0.00018176,2.607e-05,0.0,0 STARLINK-3369,1 51142U 22005AQ  23324.77861781  .00002607  00000-0  18176-3 0  9992,2 51142  53.2172  99.6954 0001269  89.0280 271.0857 15.08851121103222,6917.846,95.437,540.589,538.834,0.0
51142.0,STARLINK-3369,PAYLOAD,2023-11-21 13:45:50,15.08842963,0.0001351,53.2164,96.1271,88.7551,271.3596,0.00010344,1.359e-05,0.0,0 STARLINK-3369,1 51142U 22005AQ  23325.57350405  .00001359  00000-0  10344-3 0  9999,2 51142  53.2164  96.1271 0001351  88.7551 271.3596 15.08842963102198,6917.871,95.437,540.671,538.802,0.0
51142.0,STARLINK-3369,PAYLOAD,2023-11-21 18:31:59,15.08850706,0.0001362,53.2164,95.2348,89.3636,270.7513,0.00019299,2.786e-05,0.0,0 STARLINK-3369,1 51142U 22005AQ  23325.77221986  .00002786  00000-0  19299-3 0  9995,2 51142  53.2164  95.2348 0001362  89.3636 270.7513 15.08850706102226,6917.848,95.437,540.655,538.77,0.0
51142.0,STARLINK-3369,PAYLOAD,2023-11-22 13:36:37,15.08853059,0.0001439,53.2163,91.6672,86.3533,273.7624,0.00021405,3.121e-05,0.0,0 STARLINK-3369,1 51142U 22005AQ  23326.56709750  .00003121  00000-0  21405-3 0  9999,2 51142  53.2163  91.6672 0001439  86.3533 273.7624 15.08853059102346,6917.84,95.437,540.701,538.71,0.0
51142.0,STARLINK-3369,PAYLOAD,2023-11-22 15:12:00,15.08855539,0.0001483,53.2162,91.3696,83.4692,276.6469,0.00028322,4.224e-05,0.0,0 STARLINK-3369,1 51142U 22005AQ  23326.63333573  .00004224  00000-0  28322-3 0  9993,2 51142  53.2162  91.3696 0001483  83.4692 276.6469 15.08855539102356,6917.833,95.437,540.724,538.672,0.0
51142.0,STARLINK-3369,PAYLOAD,2023-11-23 11:52:01,15.08834067,0.0001854,53.2175,87.5015,121.6423,238.475,-0.00010646,-1.982e-05,0.0,0 STARLINK-3369,1 51142U 22005AQ  23327.49446290 -.00001982  00000-0 -10646-3 0  9999,2 51142  53.2175  87.5015 0001854 121.6423 238.4750 15.08834067103635,6917.899,95.438,541.046,538.481,0.0
51142.0,STARLINK-3369,PAYLOAD,2023-11-23 13:27:24,15.08834042,0.0001832,53.218,87.2048,122.8946,237.2223,-7.9304e-05,-1.55e-05,0.0,0 STARLINK-3369,1 51142U 22005AQ  23327.56070432 -.00001550  00000-0 -79304-4 0  9996,2 51142  53.2180  87.2048 0001832 122.8946 237.2223 15.08834042102491,6917.899,95.438,541.031,538.496,0.0
51142.0,STARLINK-3369,PAYLOAD,2023-11-24 13:18:12,15.08835389,0.0001505,53.2171,82.7416,89.1014,271.015,-7.2406e-05,-1.44e-05,0.0,0 STARLINK-3369,1 51142U 22005AQ  23328.55431079 -.00001440  00000-0 -72406-4 0  9998,2 51142  53.2171  82.7416 0001505  89.1014 271.0150 15.08835389102645,6917.894,95.438,540.801,538.718,0.0
51142.0,STARLINK-3369,PAYLOAD,2023-11-24 18:04:21,15.08838093,0.0001592,53.2181,81.8498,98.7982,261.3191,-1.0079e-05,-4.48e-06,0.0,0 STARLINK-3369,1 51142U 22005AQ  23328.75302980 -.00000448  00000-0 -10079-4 0  9993,2 51142  53.2181  81.8498 0001592  98.7982 261.3191 15.08838093103825,6917.886,95.438,540.853,538.65,0.0
51142.0,STARLINK-3369,PAYLOAD,2023-11-24 19:39:44,15.08843767,0.0001457,53.218,81.5553,94.2639,265.8519,9.9248e-05,1.292e-05,0.0,0 STARLINK-3369,1 51142U 22005AQ  23328.81926704  .00001292  00000-0  99248-4 0  9997,2 51142  53.2180  81.5553 0001457  94.2639 265.8519 15.08843767102683,6917.869,95.437,540.742,538.726,0.0
51142.0,STARLINK-3369,PAYLOAD,2023-11-25 13:09:00,15.08831303,0.0001997,53.2185,78.2914,57.9933,302.1253,0.00018905,2.721e-05,0.0,0 STARLINK-3369,1 51142U 22005AQ  23329.54792067  .00002721  00000-0  18905-3 0  9999,2 51142  53.2185  78.2914 0001997  57.9933 302.1253 15.08831303102799,6917.907,95.438,541.153,538.39,0.0
51142.0,STARLINK-3369,PAYLOAD,2023-11-25 16:19:45,15.08853293,0.0001428,53.2183,77.6875,94.1887,265.9268,0.00043976,6.72e-05,0.0,0 STARLINK-3369,1 51142U 22005AQ  23329.68038728  .00006720  00000-0  43976-3 0  9990,2 51142  53.2183  77.6875 0001428  94.1887 265.9268 15.08853293102813,6917.84,95.437,540.693,538.717,0.0
51142.0,STARLINK-3369,PAYLOAD,2023-11-26 11:24:22,15.08854158,0.0001609,53.2195,74.1209,90.8521,269.2655,0.00025482,3.771e-05,0.0,0 STARLINK-3369,1 51142U 22005AQ  23330.47526295  .00003771  00000-0  25482-3 0  9995,2 51142  53.2195  74.1209 0001609  90.8521 269.2655 15.08854158104087,6917.837,95.437,540.815,538.589,0.0
